     2              NAVIGATION DATA                         RINEX VERSION / TYPE
CCRINEXN V1.6.0 UX  CDDIS               08-AUG-17 17:31     PGM / RUN BY / DATE 
IGS BROADCAST EPHEMERIS FILE                                COMMENT             
    0.4657D-08  0.1490D-07 -0.5960D-07 -0.5960D-07          ION ALPHA           
    0.7782D+05  0.4915D+05 -0.6554D+05 -0.3277D+06          ION BETA            
    0.931322574616D-09 0.710542735760D-14   233472     1961 DELTA-UTC: A0,A1,T,W
    18                                                      LEAP SECONDS        
                                                            END OF HEADER       
 6 17  8  7 10  0  0.0 0.385711435229D-03 0.397903932026D-11 0.000000000000D+00
    0.570000000000D+02-0.133250000000D+03 0.418481717158D-08-0.229445520280D+01
   -0.697188079357D-05 0.621559680440D-03 0.738352537155D-05 0.515372992516D+04
    0.122400000000D+06 0.838190317154D-07 0.250673351942D+01 0.484287738800D-07
    0.968150587289D+00 0.243906250000D+03-0.105866467747D+01-0.802819154926D-08
   -0.407159816983D-09 0.100000000000D+01 0.196100000000D+04 0.000000000000D+00
    0.200000000000D+01 0.000000000000D+00 0.465661287308D-08 0.570000000000D+02
    0.115200000000D+06 0.400000000000D+01 0.000000000000D+00 0.000000000000D+00
 7 17  8  7 10  0  0.0 0.318653415888D-03-0.466116034659D-11 0.000000000000D+00
    0.150000000000D+02-0.175312500000D+02 0.449804450447D-08-0.301244658934D+01
   -0.979751348495D-06 0.109528475441D-01 0.105146318674D-04 0.515372889519D+04
    0.122400000000D+06-0.670552253723D-07-0.611475155240D+00-0.201165676117D-06
    0.961613327192D+00 0.179968750000D+03-0.257468597204D+01-0.772782189480D-08
   -0.543236913712D-09 0.100000000000D+01 0.196100000000D+04 0.000000000000D+00
    0.200000000000D+01 0.000000000000D+00-0.111758708954D-07 0.150000000000D+02
    0.115530000000D+06 0.400000000000D+01 0.000000000000D+00 0.000000000000D+00
 8 17  8  7 10  0  0.0-0.690226443112D-04-0.136424205266D-11 0.000000000000D+00
    0.990000000000D+02 0.200000000000D+02 0.471841082646D-08 0.300466487018D+00
    0.907108187676D-06 0.253828428686D-02 0.910833477974D-06 0.515366853714D+04
    0.122400000000D+06-0.372529029846D-08 0.145130346061D+01-0.614672899246D-07
    0.966992816367D+00 0.367031250000D+03-0.622345230514D+00-0.851356891003D-08
   -0.710743891050D-10 0.100000000000D+01 0.196100000000D+04 0.000000000000D+00
    0.200000000000D+01 0.000000000000D+00 0.558793544769D-08 0.990000000000D+02
    0.115218000000D+06 0.400000000000D+01 0.000000000000D+00 0.000000000000D+00
 9 17  8  7 10  0  0.0 0.420605763793D-03 0.704858393874D-11 0.000000000000D+00
    0.580000000000D+02 0.108125000000D+02 0.514914305391D-08-0.956027073565D-01
    0.303611159325D-06 0.667741289362D-03 0.446848571300D-05 0.515356892776D+04
    0.122400000000D+06 0.558793544769D-08-0.169025140726D+01 0.000000000000D+00
    0.952856906681D+00 0.287218750000D+03 0.191466572508D+01-0.836606276581D-08
    0.233224000430D-09 0.100000000000D+01 0.196100000000D+04 0.000000000000D+00
    0.200000000000D+01 0.000000000000D+00 0.931322574616D-09 0.580000000000D+02
    0.115200000000D+06 0.400000000000D+01 0.000000000000D+00 0.000000000000D+00
10 17  8  7 10  0  0.0 0.301147811115D-04 0.110276232590D-10 0.000000000000D+00
    0.650000000000D+02 0.165625000000D+01 0.425196282560D-08 0.179605718995D+01
    0.782310962677D-07 0.267523422372D-02 0.107791274786D-04 0.515367548370D+04
    0.122400000000D+06-0.577419996262D-07-0.272972757053D+01-0.223517417908D-07
    0.960532656441D+00 0.170125000000D+03-0.280435362721D+01-0.780425364992D-08
    0.479662837025D-09 0.100000000000D+01 0.196100000000D+04 0.000000000000D+00
    0.200000000000D+01 0.000000000000D+00 0.186264514923D-08 0.650000000000D+02
    0.120180000000D+06 0.400000000000D+01 0.000000000000D+00 0.000000000000D+00
11 17  8  7 10  0  0.0-0.707527622580D-03-0.250111042988D-11 0.000000000000D+00
    0.590000000000D+02-0.120375000000D+03 0.577416908875D-08-0.298553345074D+01
   -0.601075589657D-05 0.170408147387D-01 0.241771340370D-05 0.515372817421D+04
    0.122400000000D+06 0.201165676117D-06 0.210778558607D+01 0.128522515297D-06
    0.901682825360D+00 0.298906250000D+03 0.167300735988D+01-0.865607484598D-08
   -0.376801409577D-09 0.100000000000D+01 0.196100000000D+04 0.000000000000D+00
    0.200000000000D+01 0.000000000000D+00-0.121071934700D-07 0.590000000000D+02
    0.115368000000D+06 0.400000000000D+01 0.000000000000D+00 0.000000000000D+00
12 17  8  7 10  0  0.0 0.376732554287D-03-0.113686837722D-11 0.000000000000D+00
    0.800000000000D+02 0.110062500000D+03 0.375479925960D-08 0.265346485670D+01
    0.554695725441D-05 0.657741364557D-02 0.935979187489D-05 0.515374389648D+04
    0.122400000000D+06-0.633299350738D-07 0.473836294166D+00-0.119209289551D-06
    0.989073354304D+00 0.209718750000D+03 0.911884911758D+00-0.753031366779D-08
    0.136791412197D-09 0.100000000000D+01 0.196100000000D+04 0.000000000000D+00
    0.200000000000D+01 0.000000000000D+00-0.125728547573D-07 0.800000000000D+02
    0.115200000000D+06 0.400000000000D+01 0.000000000000D+00 0.000000000000D+00
13 17  8  7 10  0  0.0-0.891350209713D-04-0.795807864051D-12 0.000000000000D+00
    0.350000000000D+02-0.153125000000D+01 0.479519979279D-08-0.185932547104D+01
    0.614672899246D-07 0.352287653368D-02 0.454671680927D-05 0.515368323708D+04
    0.122400000000D+06 0.745058059692D-08-0.156287694412D+01 0.726431608200D-07
    0.968827889102D+00 0.296125000000D+03 0.179282376210D+01-0.814033906949D-08
    0.992898471774D-10 0.100000000000D+01 0.196100000000D+04 0.000000000000D+00
    0.200000000000D+01 0.000000000000D+00-0.111758708954D-07 0.350000000000D+02
    0.115200000000D+06 0.000000000000D+00 0.000000000000D+00 0.000000000000D+00
14 17  8  7 10  0  0.0-0.800974667072D-04-0.113686837722D-11 0.000000000000D+00
    0.430000000000D+02 0.162500000000D+01 0.504521015325D-08-0.521175465941D+00
    0.210478901863D-06 0.934597186279D-02 0.470876693726D-05 0.515366946220D+04
    0.122400000000D+06-0.800937414169D-07-0.160283577904D+01 0.108033418655D-06
    0.961357044425D+00 0.293531250000D+03-0.195181193614D+01-0.841963642594D-08
    0.143220251413D-09 0.100000000000D+01 0.196100000000D+04 0.000000000000D+00
    0.200000000000D+01 0.000000000000D+00-0.977888703346D-08 0.430000000000D+02
    0.115218000000D+06 0.400000000000D+01 0.000000000000D+00 0.000000000000D+00
15 17  8  7 10  0  0.0-0.354369170964D-03-0.454747350886D-12 0.000000000000D+00
    0.800000000000D+02 0.165625000000D+02 0.567345060770D-08-0.106730403821D+01
    0.983476638794D-06 0.940286822151D-02 0.397861003876D-05 0.515357818413D+04
    0.122400000000D+06 0.206753611565D-06-0.175367094092D+01 0.558793544769D-08
    0.928486537683D+00 0.279156250000D+03 0.589261867728D+00-0.865428905731D-08
    0.323584907182D-09 0.100000000000D+01 0.196100000000D+04 0.000000000000D+00
    0.200000000000D+01 0.000000000000D+00-0.107102096081D-07 0.800000000000D+02
    0.116400000000D+06 0.400000000000D+01 0.000000000000D+00 0.000000000000D+00
16 17  8  7 10  0  0.0 0.365688465536D-04 0.227373675443D-12 0.000000000000D+00
    0.550000000000D+02 0.113375000000D+03 0.387694720470D-08 0.695492042949D+00
    0.613555312157D-05 0.928000709973D-02 0.860728323460D-05 0.515374357224D+04
    0.122400000000D+06 0.167638063431D-07 0.492696111159D+00 0.134110450745D-06
    0.989528841162D+00 0.226375000000D+03 0.461931706133D+00-0.780818238499D-08
    0.725030200418D-10 0.100000000000D+01 0.196100000000D+04 0.000000000000D+00
    0.200000000000D+01 0.000000000000D+00-0.107102096081D-07 0.550000000000D+02
    0.115218000000D+06 0.400000000000D+01 0.000000000000D+00 0.000000000000D+00
17 17  8  7 10  0  0.0-0.164954923093D-03 0.227373675443D-11 0.000000000000D+00
    0.780000000000D+02 0.154687500000D+02 0.456733317833D-08-0.206612941070D+00
    0.881031155586D-06 0.117163094692D-01 0.108033418655D-05 0.515366354942D+04
    0.122400000000D+06-0.115483999252D-06 0.150987050670D+01 0.117346644402D-06
    0.980250325669D+00 0.370562500000D+03-0.184670587010D+01-0.861285887055D-08
   -0.564309224349D-10 0.100000000000D+01 0.196100000000D+04 0.000000000000D+00
    0.280000000000D+01 0.000000000000D+00-0.111758708954D-07 0.780000000000D+02
    0.115200000000D+06 0.000000000000D+00 0.000000000000D+00 0.000000000000D+00
18 17  8  7 10  0  0.0 0.626254361123D-03 0.113686837722D-11 0.000000000000D+00
    0.540000000000D+02-0.122812500000D+02 0.505378193887D-08 0.125182198917D+01
   -0.704079866409D-06 0.181364569580D-01 0.109039247036D-04 0.515362747192D+04
    0.122400000000D+06-0.365078449249D-06-0.277444348881D+01-0.255182385445D-06
    0.926176196510D+00 0.154062500000D+03-0.178854408742D+01-0.842213653008D-08
    0.448590114150D-09 0.100000000000D+01 0.196100000000D+04 0.000000000000D+00
    0.200000000000D+01 0.000000000000D+00-0.111758708954D-07 0.540000000000D+02
    0.116070000000D+06 0.400000000000D+01 0.000000000000D+00 0.000000000000D+00
19 17  8  7 10  0  0.0-0.492194667458D-03 0.170530256582D-11 0.000000000000D+00
    0.700000000000D+02 0.534375000000D+01 0.449875869890D-08 0.280281264929D+01
    0.782310962677D-07 0.102038980695D-01 0.195577740669D-06 0.515367444992D+04
    0.122400000000D+06-0.130385160446D-07 0.155756980063D+01-0.145286321640D-06
    0.977562319029D+00 0.381218750000D+03 0.104362446498D+01-0.826070145621D-08
   -0.167506980508D-09 0.100000000000D+01 0.196100000000D+04 0.000000000000D+00
    0.200000000000D+01 0.000000000000D+00-0.153668224812D-07 0.700000000000D+02
    0.115200000000D+06 0.000000000000D+00 0.000000000000D+00 0.000000000000D+00
